{
  "type": "FeatureCollection",
  "features": [
    {
      "type": "Feature",
      "properties": {
        "norad_id": 33924,
        "name": "COSMOS 2251 DEB",
        "group": "cosmos-2251-debris",
        "lat": 66.73357213452859,
        "lon": -60.087461222790544,
        "alt_km": 1293.9477517324494,
        "timestamp": "2025-12-20T11:30:28.769114+00:00",
        "meta_object_name": "COSMOS 2251 DEB",
        "meta_object_id": "1993-036ED",
        "meta_epoch": "2025-12-20T04:01:45.333120",
        "meta_mean_motion": 13.50234434,
        "meta_eccentricity": 0.0403887,
        "meta_inclination": 73.9134,
        "meta_ra_of_asc_node": 258.2614,
        "meta_arg_of_pericenter": 292.4064,
        "meta_mean_anomaly": 63.4727,
        "meta_ephemeris_type": 0,
        "meta_classification_type": "U",
        "meta_norad_cat_id": 33924,
        "meta_element_set_no": 999,
        "meta_rev_at_epoch": 82839,
        "meta_bstar": 0.00039422,
        "meta_mean_motion_dot": 3.93e-06,
        "meta_mean_motion_ddot": 0,
        "tle_line1": "1 33924U 93036ED  25354.16788580  .00000393  00000+0  39422-3 0  9991",
        "tle_line2": "2 33924  73.9134 258.2614 0403887 292.4064  63.4727 13.50234434828393"
      },
      "geometry": {
        "type": "Point",
        "coordinates": [
          -60.087461222790544,
          66.73357213452859
        ]
      }
    },
    {
      "type": "Feature",
      "properties": {
        "norad_id": 33928,
        "name": "COSMOS 2251 DEB",
        "group": "cosmos-2251-debris",
        "lat": 10.891906047722639,
        "lon": -145.18737374860262,
        "alt_km": 776.9846012278604,
        "timestamp": "2025-12-20T11:30:28.769124+00:00",
        "meta_object_name": "COSMOS 2251 DEB",
        "meta_object_id": "1993-036EH",
        "meta_epoch": "2025-12-20T04:05:38.866272",
        "meta_mean_motion": 14.47416939,
        "meta_eccentricity": 0.0061833,
        "meta_inclination": 73.9255,
        "meta_ra_of_asc_node": 38.5746,
        "meta_arg_of_pericenter": 331.147,
        "meta_mean_anomaly": 28.6273,
        "meta_ephemeris_type": 0,
        "meta_classification_type": "U",
        "meta_norad_cat_id": 33928,
        "meta_element_set_no": 999,
        "meta_rev_at_epoch": 88752,
        "meta_bstar": 0.00017222,
        "meta_mean_motion_dot": 6.17e-06,
        "meta_mean_motion_ddot": 0,
        "tle_line1": "1 33928U 93036EH  25354.17058873  .00000617  00000+0  17222-3 0  9994",
        "tle_line2": "2 33928  73.9255  38.5746 0061833 331.1470  28.6273 14.47416939887527"
      },
      "geometry": {
        "type": "Point",
        "coordinates": [
          -145.18737374860262,
          10.891906047722639
        ]
      }
    },
    {
      "type": "Feature",
      "properties": {
        "norad_id": 33932,
        "name": "COSMOS 2251 DEB",
        "group": "cosmos-2251-debris",
        "lat": 61.24101631561312,
        "lon": -26.915042080687712,
        "alt_km": 739.7457511629518,
        "timestamp": "2025-12-20T11:30:28.769134+00:00",
        "meta_object_name": "COSMOS 2251 DEB",
        "meta_object_id": "1993-036EM",
        "meta_epoch": "2025-12-19T21:51:19.577664",
        "meta_mean_motion": 14.38777344,
        "meta_eccentricity": 0.0035696,
        "meta_inclination": 74.0341,
        "meta_ra_of_asc_node": 302.6915,
        "meta_arg_of_pericenter": 17.1173,
        "meta_mean_anomaly": 343.1175,
        "meta_ephemeris_type": 0,
        "meta_classification_type": "U",
        "meta_norad_cat_id": 33932,
        "meta_element_set_no": 999,
        "meta_rev_at_epoch": 88101,
        "meta_bstar": 0.00033281,
        "meta_mean_motion_dot": 1.004e-05,
        "meta_mean_motion_ddot": 0,
        "tle_line1": "1 33932U 93036EM  25353.91064326  .00001004  00000+0  33281-3 0  9994",
        "tle_line2": "2 33932  74.0341 302.6915 0035696  17.1173 343.1175 14.38777344881016"
      },
      "geometry": {
        "type": "Point",
        "coordinates": [
          -26.915042080687712,
          61.24101631561312
        ]
      }
    },
    {
      "type": "Feature",
      "properties": {
        "norad_id": 33933,
        "name": "COSMOS 2251 DEB",
        "group": "cosmos-2251-debris",
        "lat": 49.39183083124579,
        "lon": -153.40245011481562,
        "alt_km": 762.3144241563623,
        "timestamp": "2025-12-20T11:30:28.769144+00:00",
        "meta_object_name": "COSMOS 2251 DEB",
        "meta_object_id": "1993-036EN",
        "meta_epoch": "2025-12-20T04:13:15.585312",
        "meta_mean_motion": 14.33499387,
        "meta_eccentricity": 0.0070892,
        "meta_inclination": 74.0891,
        "meta_ra_of_asc_node": 46.5839,
        "meta_arg_of_pericenter": 52.7662,
        "meta_mean_anomaly": 307.9929,
        "meta_ephemeris_type": 0,
        "meta_classification_type": "U",
        "meta_norad_cat_id": 33933,
        "meta_element_set_no": 999,
        "meta_rev_at_epoch": 87891,
        "meta_bstar": 0.00018604,
        "meta_mean_motion_dot": 5.04e-06,
        "meta_mean_motion_ddot": 0,
        "tle_line1": "1 33933U 93036EN  25354.17587483  .00000504  00000+0  18604-3 0  9994",
        "tle_line2": "2 33933  74.0891  46.5839 0070892  52.7662 307.9929 14.33499387878914"
      },
      "geometry": {
        "type": "Point",
        "coordinates": [
          -153.40245011481562,
          49.39183083124579
        ]
      }
    },
    {
      "type": "Feature",
      "properties": {
        "norad_id": 33934,
        "name": "COSMOS 2251 DEB",
        "group": "cosmos-2251-debris",
        "lat": -54.36490853664054,
        "lon": -70.64282187273086,
        "alt_km": 692.9401127724159,
        "timestamp": "2025-12-20T11:30:28.769154+00:00",
        "meta_object_name": "COSMOS 2251 DEB",
        "meta_object_id": "1993-036EP",
        "meta_epoch": "2025-12-19T22:54:14.856768",
        "meta_mean_motion": 14.59163688,
        "meta_eccentricity": 0.0015388,
        "meta_inclination": 74.0384,
        "meta_ra_of_asc_node": 86.8257,
        "meta_arg_of_pericenter": 210.536,
        "meta_mean_anomaly": 149.4911,
        "meta_ephemeris_type": 0,
        "meta_classification_type": "U",
        "meta_norad_cat_id": 33934,
        "meta_element_set_no": 999,
        "meta_rev_at_epoch": 88844,
        "meta_bstar": 0.00057197,
        "meta_mean_motion_dot": 2.671e-05,
        "meta_mean_motion_ddot": 0,
        "tle_line1": "1 33934U 93036EP  25353.95433862  .00002671  00000+0  57197-3 0  9998",
        "tle_line2": "2 33934  74.0384  86.8257 0015388 210.5360 149.4911 14.59163688888440"
      },
      "geometry": {
        "type": "Point",
        "coordinates": [
          -70.64282187273086,
          -54.36490853664054
        ]
      }
    },
    {
      "type": "Feature",
      "properties": {
        "norad_id": 33936,
        "name": "COSMOS 2251 DEB",
        "group": "cosmos-2251-debris",
        "lat": -17.21197003847382,
        "lon": -152.21498958990992,
        "alt_km": 678.9478049209611,
        "timestamp": "2025-12-20T11:30:28.769164+00:00",
        "meta_object_name": "COSMOS 2251 DEB",
        "meta_object_id": "1993-036ER",
        "meta_epoch": "2025-12-20T04:01:44.567616",
        "meta_mean_motion": 14.60312743,
        "meta_eccentricity": 0.002702,
        "meta_inclination": 74.0179,
        "meta_ra_of_asc_node": 23.2868,
        "meta_arg_of_pericenter": 177.0627,
        "meta_mean_anomaly": 183.0703,
        "meta_ephemeris_type": 0,
        "meta_classification_type": "U",
        "meta_norad_cat_id": 33936,
        "meta_element_set_no": 999,
        "meta_rev_at_epoch": 88998,
        "meta_bstar": 0.00040207,
        "meta_mean_motion_dot": 1.923e-05,
        "meta_mean_motion_ddot": 0,
        "tle_line1": "1 33936U 93036ER  25354.16787694  .00001923  00000+0  40207-3 0  9992",
        "tle_line2": "2 33936  74.0179  23.2868 0027020 177.0627 183.0703 14.60312743889989"
      },
      "geometry": {
        "type": "Point",
        "coordinates": [
          -152.21498958990992,
          -17.21197003847382
        ]
      }
    },
    {
      "type": "Feature",
      "properties": {
        "norad_id": 33938,
        "name": "COSMOS 2251 DEB",
        "group": "cosmos-2251-debris",
        "lat": 34.25795163842637,
        "lon": -156.03745300926934,
        "alt_km": 739.8000538969809,
        "timestamp": "2025-12-20T11:30:28.769173+00:00",
        "meta_object_name": "COSMOS 2251 DEB",
        "meta_object_id": "1993-036ET",
        "meta_epoch": "2025-12-20T00:25:43.082400",
        "meta_mean_motion": 14.46813427,
        "meta_eccentricity": 0.0016834,
        "meta_inclination": 74.0437,
        "meta_ra_of_asc_node": 193.5876,
        "meta_arg_of_pericenter": 275.1249,
        "meta_mean_anomaly": 237.1501,
        "meta_ephemeris_type": 0,
        "meta_classification_type": "U",
        "meta_norad_cat_id": 33938,
        "meta_element_set_no": 999,
        "meta_rev_at_epoch": 88505,
        "meta_bstar": 0.00029325,
        "meta_mean_motion_dot": 1.037e-05,
        "meta_mean_motion_ddot": 0,
        "tle_line1": "1 33938U 93036ET  25354.01785975  .00001037  00000+0  29325-3 0  9992",
        "tle_line2": "2 33938  74.0437 193.5876 0016834 275.1249 237.1501 14.46813427885059"
      },
      "geometry": {
        "type": "Point",
        "coordinates": [
          -156.03745300926934,
          34.25795163842637
        ]
      }
    }
  ]
}